{
  "type": "FeatureCollection",
  "features": [
    {
      "type": "Feature",
      "properties": {
        "coastlineId": "ephesus-gulf",
        "provenance": {
          "dataset": "AWMC geodata; Natural Earth",
          "version": "awmc-commit:7ecf8bccea2efe1e1e9df2daf6001942de73fb87;awmc-path:Physical Data/shoreline/shoreline.geojson;ne-commit:ca96624a56bd078437bca8184e78163e5039ad19;ne-path:geojson/ne_10m_coastline.geojson",
          "upstreamFeatureIds": [
            "awmc:shoreline-objectid-9080",
            "awmc:shoreline-objectid-0"
          ],
          "changes": [
            {
              "kind": "ancient-modern-coast-compare",
              "detail": "Kept ancient shoreline segments inside target coastal bbox only when their sampled points are >= ~0.03° from today's coast (Natural Earth's coastline and the outlines of its land, which include small islands) and most of them lie on today's land: old shores that silting has left inland. Shores of islands that both datasets hold, such as Agathonisi, and stretches in today's sea are left out.",
              "sources": [
                "awmc:shoreline"
              ]
            }
          ]
        }
      },
      "geometry": {
        "type": "MultiLineString",
        "coordinates": [
          [
            [
              27.29407,
              37.99319
            ],
            [
              27.29649,
              37.98836
            ],
            [
              27.29866,
              37.98402
            ],
            [
              27.30058,
              37.98235
            ],
            [
              27.30511,
              37.98152
            ],
            [
              27.30911,
              37.98172
            ],
            [
              27.31577,
              37.98205
            ],
            [
              27.31848,
              37.98252
            ],
            [
              27.32285,
              37.98327
            ],
            [
              27.32721,
              37.98403
            ],
            [
              27.3321,
              37.98406
            ],
            [
              27.33678,
              37.9841
            ],
            [
              27.33844,
              37.98359
            ],
            [
              27.34071,
              37.98259
            ],
            [
              27.34182,
              37.97982
            ],
            [
              27.34163,
              37.97663
            ],
            [
              27.34012,
              37.97426
            ],
            [
              27.33844,
              37.97188
            ],
            [
              27.33427,
              37.96814
            ],
            [
              27.33136,
              37.96552
            ],
            [
              27.3302,
              37.96335
            ],
            [
              27.33024,
              37.96284
            ]
          ],
          [
            [
              27.293,
              37.99532
            ],
            [
              27.29407,
              37.99319
            ],
            [
              27.29415,
              37.99057
            ],
            [
              27.29425,
              37.98876
            ],
            [
              27.29472,
              37.98733
            ],
            [
              27.29501,
              37.98609
            ],
            [
              27.2952,
              37.98476
            ],
            [
              27.29586,
              37.98371
            ],
            [
              27.29634,
              37.98238
            ],
            [
              27.29739,
              37.98152
            ],
            [
              27.29853,
              37.98048
            ],
            [
              27.29967,
              37.97943
            ],
            [
              27.30024,
              37.97857
            ],
            [
              27.30158,
              37.97743
            ],
            [
              27.30281,
              37.97657
            ],
            [
              27.30472,
              37.97553
            ],
            [
              27.30586,
              37.97477
            ],
            [
              27.307,
              37.97315
            ],
            [
              27.30748,
              37.9721
            ],
            [
              27.30814,
              37.97086
            ],
            [
              27.30938,
              37.97001
            ],
            [
              27.30995,
              37.96963
            ],
            [
              27.31119,
              37.96925
            ],
            [
              27.31309,
              37.96877
            ],
            [
              27.31509,
              37.9681
            ],
            [
              27.31633,
              37.96801
            ],
            [
              27.31795,
              37.96791
            ],
            [
              27.31975,
              37.96772
            ],
            [
              27.32099,
              37.96744
            ],
            [
              27.32213,
              37.96715
            ],
            [
              27.32328,
              37.96677
            ],
            [
              27.32461,
              37.96649
            ],
            [
              27.32546,
              37.9662
            ],
            [
              27.32651,
              37.96601
            ],
            [
              27.32775,
              37.96515
            ],
            [
              27.32813,
              37.96458
            ],
            [
              27.3288,
              37.96353
            ],
            [
              27.33024,
              37.96284
            ],
            [
              27.33042,
              37.96053
            ],
            [
              27.33245,
              37.95746
            ],
            [
              27.33661,
              37.95555
            ],
            [
              27.34044,
              37.95377
            ],
            [
              27.3432,
              37.95128
            ],
            [
              27.34327,
              37.94998
            ]
          ],
          [
            [
              27.32421,
              38.00451
            ],
            [
              27.33087,
              38.00332
            ],
            [
              27.3361,
              38.00141
            ],
            [
              27.3411,
              37.9988
            ],
            [
              27.34277,
              37.99761
            ],
            [
              27.34491,
              37.99428
            ],
            [
              27.34776,
              37.99142
            ],
            [
              27.35038,
              37.98738
            ],
            [
              27.35157,
              37.98309
            ],
            [
              27.35419,
              37.97691
            ],
            [
              27.35371,
              37.96905
            ],
            [
              27.35347,
              37.96215
            ],
            [
              27.353,
              37.95382
            ],
            [
              27.3499,
              37.95073
            ],
            [
              27.34327,
              37.94998
            ]
          ],
          [
            [
              27.29407,
              37.99319
            ],
            [
              27.29742,
              37.99556
            ],
            [
              27.30143,
              37.99779
            ],
            [
              27.30604,
              37.99243
            ],
            [
              27.30813,
              37.99452
            ],
            [
              27.30604,
              37.99809
            ],
            [
              27.30828,
              38.00136
            ],
            [
              27.3111,
              38.00403
            ],
            [
              27.31601,
              38.00582
            ],
            [
              27.32057,
              38.00329
            ],
            [
              27.32421,
              38.00451
            ],
            [
              27.32639,
              38.00412
            ],
            [
              27.33325,
              38.00522
            ],
            [
              27.33801,
              38.00522
            ],
            [
              27.34586,
              38.00427
            ],
            [
              27.35252,
              38.00427
            ],
            [
              27.35847,
              38.0057
            ],
            [
              27.36394,
              38.00927
            ],
            [
              27.3687,
              38.01046
            ],
            [
              27.37156,
              38.00665
            ],
            [
              27.37013,
              38.00403
            ],
            [
              27.36656,
              37.99903
            ],
            [
              27.3649,
              37.99332
            ],
            [
              27.36394,
              37.98809
            ],
            [
              27.3649,
              37.98428
            ],
            [
              27.36585,
              37.98024
            ],
            [
              27.36751,
              37.97548
            ],
            [
              27.36942,
              37.97143
            ],
            [
              27.37251,
              37.96525
            ],
            [
              27.3718,
              37.9593
            ],
            [
              27.37061,
              37.95335
            ],
            [
              27.36347,
              37.94954
            ],
            [
              27.35633,
              37.94907
            ],
            [
              27.3499,
              37.95073
            ]
          ],
          [
            [
              27.35006,
              37.97756
            ],
            [
              27.34932,
              37.97979
            ],
            [
              27.34709,
              37.97979
            ],
            [
              27.34531,
              37.9786
            ],
            [
              27.34516,
              37.97652
            ],
            [
              27.34635,
              37.97474
            ],
            [
              27.34932,
              37.97489
            ],
            [
              27.35006,
              37.97756
            ]
          ]
        ]
      }
    },
    {
      "type": "Feature",
      "properties": {
        "coastlineId": "miletus-gulf",
        "provenance": {
          "dataset": "AWMC geodata; Natural Earth",
          "version": "awmc-commit:7ecf8bccea2efe1e1e9df2daf6001942de73fb87;awmc-path:Physical Data/shoreline/shoreline.geojson;ne-commit:ca96624a56bd078437bca8184e78163e5039ad19;ne-path:geojson/ne_10m_coastline.geojson",
          "upstreamFeatureIds": [
            "awmc:shoreline-objectid-9121",
            "awmc:shoreline-objectid-0"
          ],
          "changes": [
            {
              "kind": "ancient-modern-coast-compare",
              "detail": "Kept ancient shoreline segments inside target coastal bbox only when their sampled points are >= ~0.03° from today's coast (Natural Earth's coastline and the outlines of its land, which include small islands) and most of them lie on today's land: old shores that silting has left inland. Shores of islands that both datasets hold, such as Agathonisi, and stretches in today's sea are left out.",
              "sources": [
                "awmc:shoreline"
              ]
            }
          ]
        }
      },
      "geometry": {
        "type": "MultiLineString",
        "coordinates": [
          [
            [
              27.39095,
              37.55422
            ],
            [
              27.39544,
              37.55381
            ],
            [
              27.402,
              37.5521
            ],
            [
              27.41198,
              37.55181
            ],
            [
              27.4194,
              37.55324
            ],
            [
              27.42682,
              37.55409
            ],
            [
              27.43195,
              37.55695
            ],
            [
              27.43737,
              37.55552
            ],
            [
              27.43452,
              37.55124
            ],
            [
              27.43765,
              37.54925
            ],
            [
              27.43965,
              37.54668
            ],
            [
              27.44051,
              37.54297
            ],
            [
              27.43794,
              37.54354
            ],
            [
              27.43366,
              37.54497
            ],
            [
              27.43166,
              37.54069
            ],
            [
              27.42995,
              37.53755
            ],
            [
              27.42425,
              37.53584
            ],
            [
              27.42083,
              37.53869
            ],
            [
              27.4174,
              37.53698
            ],
            [
              27.41655,
              37.53327
            ],
            [
              27.41341,
              37.53071
            ],
            [
              27.40771,
              37.527
            ],
            [
              27.40571,
              37.52129
            ],
            [
              27.40913,
              37.51759
            ],
            [
              27.41655,
              37.51816
            ],
            [
              27.42425,
              37.51787
            ],
            [
              27.43166,
              37.51759
            ],
            [
              27.43822,
              37.5193
            ],
            [
              27.4465,
              37.52671
            ],
            [
              27.4522,
              37.52757
            ],
            [
              27.4579,
              37.5327
            ],
            [
              27.46019,
              37.52728
            ],
            [
              27.46304,
              37.52358
            ],
            [
              27.46218,
              37.52015
            ],
            [
              27.46618,
              37.51787
            ],
            [
              27.47274,
              37.51958
            ],
            [
              27.47502,
              37.51559
            ],
            [
              27.48015,
              37.51759
            ],
            [
              27.48472,
              37.51359
            ],
            [
              27.48814,
              37.50874
            ],
            [
              27.48956,
              37.50475
            ],
            [
              27.49242,
              37.50361
            ],
            [
              27.4947,
              37.50846
            ],
            [
              27.50126,
              37.50903
            ],
            [
              27.50896,
              37.50903
            ],
            [
              27.51552,
              37.50675
            ],
            [
              27.51894,
              37.50732
            ],
            [
              27.52037,
              37.5039
            ],
            [
              27.52265,
              37.49933
            ],
            [
              27.52607,
              37.4962
            ],
            [
              27.52949,
              37.49562
            ],
            [
              27.53406,
              37.49448
            ],
            [
              27.53748,
              37.49306
            ],
            [
              27.53548,
              37.48935
            ],
            [
              27.5352,
              37.48536
            ],
            [
              27.53007,
              37.48593
            ],
            [
              27.52778,
              37.48308
            ],
            [
              27.52122,
              37.48079
            ],
            [
              27.51067,
              37.47908
            ],
            [
              27.50525,
              37.48051
            ],
            [
              27.50012,
              37.48222
            ],
            [
              27.49584,
              37.47908
            ],
            [
              27.49498,
              37.47537
            ],
            [
              27.49013,
              37.47594
            ],
            [
              27.48529,
              37.47908
            ],
            [
              27.47987,
              37.47794
            ],
            [
              27.47502,
              37.47965
            ],
            [
              27.46903,
              37.47994
            ],
            [
              27.46418,
              37.47823
            ],
            [
              27.45876,
              37.47509
            ],
            [
              27.4522,
              37.47537
            ],
            [
              27.4445,
              37.47652
            ],
            [
              27.43908,
              37.47794
            ],
            [
              27.43338,
              37.47623
            ],
            [
              27.42682,
              37.47509
            ],
            [
              27.41912,
              37.47537
            ],
            [
              27.41027,
              37.47994
            ],
            [
              27.40058,
              37.4865
            ],
            [
              27.39658,
              37.48678
            ],
            [
              27.38888,
              37.48621
            ],
            [
              27.38631,
              37.49049
            ],
            [
              27.38689,
              37.4962
            ],
            [
              27.3866,
              37.50247
            ],
            [
              27.38033,
              37.50561
            ]
          ],
          [
            [
              27.23829,
              37.58119
            ],
            [
              27.24135,
              37.58116
            ],
            [
              27.24591,
              37.56316
            ],
            [
              27.24797,
              37.55534
            ],
            [
              27.24995,
              37.54721
            ],
            [
              27.25127,
              37.54654
            ],
            [
              27.26001,
              37.54116
            ],
            [
              27.26768,
              37.53655
            ]
          ],
          [
            [
              27.23829,
              37.58119
            ],
            [
              27.31301,
              37.58461
            ],
            [
              27.33954,
              37.5849
            ],
            [
              27.36977,
              37.58205
            ],
            [
              27.37677,
              37.58037
            ],
            [
              27.38246,
              37.57887
            ],
            [
              27.38547,
              37.57786
            ],
            [
              27.38849,
              37.57619
            ],
            [
              27.38557,
              37.5709
            ],
            [
              27.38297,
              37.56807
            ],
            [
              27.37427,
              37.56493
            ],
            [
              27.36508,
              37.56539
            ],
            [
              27.36343,
              37.56587
            ],
            [
              27.36052,
              37.56592
            ],
            [
              27.35771,
              37.56333
            ],
            [
              27.35551,
              37.56037
            ],
            [
              27.35643,
              37.55799
            ],
            [
              27.35841,
              37.55611
            ],
            [
              27.36443,
              37.55509
            ],
            [
              27.37205,
              37.55381
            ],
            [
              27.38603,
              37.55467
            ],
            [
              27.39095,
              37.55422
            ]
          ],
          [
            [
              27.38033,
              37.50561
            ],
            [
              27.36863,
              37.5096
            ],
            [
              27.36007,
              37.50874
            ],
            [
              27.35009,
              37.50589
            ],
            [
              27.33041,
              37.50475
            ],
            [
              27.319,
              37.50703
            ],
            [
              27.30702,
              37.5096
            ],
            [
              27.2959,
              37.51245
            ],
            [
              27.2904,
              37.51331
            ],
            [
              27.28556,
              37.5175
            ],
            [
              27.28298,
              37.52266
            ],
            [
              27.28169,
              37.52878
            ],
            [
              27.28234,
              37.53523
            ],
            [
              27.28137,
              37.53878
            ],
            [
              27.27718,
              37.54135
            ],
            [
              27.27331,
              37.54135
            ],
            [
              27.26848,
              37.53845
            ]
          ],
          [
            [
              27.42678,
              37.63729
            ],
            [
              27.42654,
              37.63324
            ],
            [
              27.42345,
              37.63205
            ],
            [
              27.42059,
              37.63324
            ],
            [
              27.4175,
              37.63419
            ],
            [
              27.41369,
              37.63372
            ],
            [
              27.41084,
              37.63538
            ],
            [
              27.41369,
              37.63872
            ],
            [
              27.42035,
              37.63895
            ],
            [
              27.42678,
              37.63729
            ]
          ],
          [
            [
              27.39095,
              37.55422
            ],
            [
              27.39309,
              37.55113
            ],
            [
              27.3948,
              37.54865
            ],
            [
              27.39575,
              37.54561
            ],
            [
              27.3967,
              37.54028
            ],
            [
              27.39461,
              37.53742
            ],
            [
              27.39156,
              37.53514
            ],
            [
              27.38604,
              37.53209
            ],
            [
              27.38262,
              37.53038
            ],
            [
              27.37957,
              37.52962
            ],
            [
              27.37538,
              37.52828
            ],
            [
              27.37196,
              37.52429
            ],
            [
              27.36777,
              37.52124
            ],
            [
              27.36415,
              37.51667
            ],
            [
              27.36263,
              37.51401
            ],
            [
              27.36244,
              37.5121
            ],
            [
              27.36663,
              37.51172
            ],
            [
              27.37082,
              37.51249
            ],
            [
              27.37443,
              37.51058
            ],
            [
              27.37729,
              37.50944
            ],
            [
              27.38033,
              37.50561
            ]
          ],
          [
            [
              27.19986,
              37.62193
            ],
            [
              27.20406,
              37.62587
            ],
            [
              27.20787,
              37.62944
            ],
            [
              27.21215,
              37.63324
            ],
            [
              27.21953,
              37.63467
            ],
            [
              27.23024,
              37.63562
            ],
            [
              27.23904,
              37.63895
            ],
            [
              27.24689,
              37.64324
            ],
            [
              27.25117,
              37.64657
            ],
            [
              27.25117,
              37.65085
            ],
            [
              27.26069,
              37.65204
            ],
            [
              27.26878,
              37.65204
            ],
            [
              27.27402,
              37.65299
            ],
            [
              27.27544,
              37.65632
            ],
            [
              27.27711,
              37.65894
            ],
            [
              27.28282,
              37.65894
            ],
            [
              27.2902,
              37.65894
            ],
            [
              27.29519,
              37.66203
            ],
            [
              27.30352,
              37.66679
            ],
            [
              27.31018,
              37.66941
            ],
            [
              27.31946,
              37.66941
            ],
            [
              27.32565,
              37.67227
            ],
            [
              27.33136,
              37.6775
            ],
            [
              27.33779,
              37.6794
            ],
            [
              27.3435,
              37.68131
            ],
            [
              27.34921,
              37.6863
            ],
            [
              27.35064,
              37.69035
            ],
            [
              27.3542,
              37.69558
            ],
            [
              27.35706,
              37.69987
            ],
            [
              27.36134,
              37.70368
            ],
            [
              27.36634,
              37.70701
            ],
            [
              27.37205,
              37.71129
            ],
            [
              27.378,
              37.71414
            ],
            [
              27.38252,
              37.71867
            ],
            [
              27.38657,
              37.72319
            ],
            [
              27.39218,
              37.72676
            ],
            [
              27.39789,
              37.72985
            ],
            [
              27.40455,
              37.73389
            ],
            [
              27.40931,
              37.7358
            ],
            [
              27.41502,
              37.73556
            ],
            [
              27.41669,
              37.73175
            ],
            [
              27.41931,
              37.72985
            ],
            [
              27.42311,
              37.72699
            ],
            [
              27.42906,
              37.7239
            ],
            [
              27.43782,
              37.72057
            ],
            [
              27.44401,
              37.71819
            ],
            [
              27.45043,
              37.71652
            ],
            [
              27.45662,
              37.7151
            ],
            [
              27.46447,
              37.71367
            ],
            [
              27.46828,
              37.71367
            ],
            [
              27.4766,
              37.71272
            ],
            [
              27.48684,
              37.71105
            ],
            [
              27.4935,
              37.70962
            ],
            [
              27.49921,
              37.70843
            ],
            [
              27.50421,
              37.70677
            ],
            [
              27.5092,
              37.70534
            ],
            [
              27.51015,
              37.70082
            ],
            [
              27.51325,
              37.69915
            ],
            [
              27.51563,
              37.69392
            ],
            [
              27.51658,
              37.68821
            ],
            [
              27.51848,
              37.68512
            ],
            [
              27.52062,
              37.68059
            ],
            [
              27.52062,
              37.67726
            ],
            [
              27.5192,
              37.67346
            ],
            [
              27.51848,
              37.66846
            ],
            [
              27.51753,
              37.66465
            ],
            [
              27.51706,
              37.66084
            ],
            [
              27.51634,
              37.65656
            ],
            [
              27.51634,
              37.65228
            ],
            [
              27.51563,
              37.64776
            ],
            [
              27.51372,
              37.64347
            ],
            [
              27.5161,
              37.63943
            ],
            [
              27.51824,
              37.63657
            ],
            [
              27.51753,
              37.63253
            ],
            [
              27.51158,
              37.63324
            ],
            [
              27.5073,
              37.63443
            ],
            [
              27.50064,
              37.63491
            ],
            [
              27.49397,
              37.63491
            ],
            [
              27.48969,
              37.63134
            ],
            [
              27.48755,
              37.62777
            ],
            [
              27.48826,
              37.62325
            ],
            [
              27.48898,
              37.61944
            ],
            [
              27.49088,
              37.61659
            ],
            [
              27.4885,
              37.61326
            ],
            [
              27.48303,
              37.61111
            ],
            [
              27.48113,
              37.60778
            ],
            [
              27.47898,
              37.60398
            ],
            [
              27.4728,
              37.60302
            ],
            [
              27.47089,
              37.60873
            ],
            [
              27.46923,
              37.61492
            ],
            [
              27.46661,
              37.62087
            ],
            [
              27.46257,
              37.62206
            ],
            [
              27.45662,
              37.6223
            ],
            [
              27.45162,
              37.6223
            ],
            [
              27.44472,
              37.62063
            ],
            [
              27.44091,
              37.61825
            ],
            [
              27.43734,
              37.61611
            ],
            [
              27.43806,
              37.61254
            ],
            [
              27.44139,
              37.60945
            ],
            [
              27.44472,
              37.60636
            ],
            [
              27.44876,
              37.60231
            ],
            [
              27.45019,
              37.59779
            ],
            [
              27.45138,
              37.59303
            ],
            [
              27.45281,
              37.58946
            ],
            [
              27.45662,
              37.58708
            ],
            [
              27.45186,
              37.58375
            ],
            [
              27.44662,
              37.58351
            ],
            [
              27.44186,
              37.58446
            ],
            [
              27.43734,
              37.58708
            ],
            [
              27.43544,
              37.59113
            ],
            [
              27.43163,
              37.59327
            ],
            [
              27.42854,
              37.59255
            ],
            [
              27.42616,
              37.59089
            ],
            [
              27.42426,
              37.5878
            ],
            [
              27.42043,
              37.58433
            ],
            [
              27.41324,
              37.5823
            ],
            [
              27.40618,
              37.57799
            ],
            [
              27.39639,
              37.57812
            ],
            [
              27.38849,
              37.57619
            ]
          ]
        ]
      }
    }
  ]
}
