{"type":"FeatureCollection","features":[{"type":"Feature","properties":{"edgeId":"roman-world-ad-69","provenance":{"dataset":"AWMC geodata; Natural Earth","version":"commit:7ecf8bccea2efe1e1e9df2daf6001942de73fb87; naturalearth-commit:ca96624a56bd078437bca8184e78163e5039ad19","upstreamFeatureIds":["awmc:roman-empire-ad-69-extent"],"changes":[{"kind":"union-boundary","detail":"Where the union of all 24 areas (AWMC's AD 69 extent and the timeline areas on Natural Earth land) meets Natural Earth land outside it, less stretches within 2 km of today's coastline. Static: every area is on Rome's side in every year; before AD 9 it follows the Rhine rather than the Elbe, an approximation (ADR-0037).","sources":["awmc:roman-empire-ad-69-extent","awmc:roman-empire-ad-69-provinces"]}]}},"geometry":{"type":"MultiLineString","coordinates":[[[40.64612,40.96151],[40.61779,40.78791],[40.56366,40.71113],[40.55224,40.6273],[40.50715,40.5513],[40.44292,40.49337],[40.22003,40.47275],[40.21536,40.46478],[40.23205,40.44002],[40.21347,40.22957],[40.25032,40.11427],[40.2347,39.96002],[40.27132,39.84481],[40.23115,39.6992],[40.16403,39.60854],[40.00992,39.5706],[39.85312,39.57882],[39.58754,39.68672],[39.48799,39.69358],[39.46748,39.65714],[39.3085,39.62101],[39.06345,39.59538],[38.88835,39.52839],[38.41431,39.41629],[38.42075,39.34317],[38.59895,39.24965],[38.77952,39.11928],[38.82704,38.99692],[38.84166,38.81435],[38.66925,38.74713],[38.52142,38.72484],[38.43465,38.64697],[38.40574,38.55018],[38.58146,38.45696],[38.85728,38.38306],[38.95802,38.40257],[39.11333,38.31479],[39.12981,38.20125],[39.13231,38.18405],[39.26258,38.17535],[39.25145,38.07254],[39.16734,37.95915],[39.01072,37.83499],[38.95434,37.73009],[38.84734,37.57163],[38.64594,37.56869],[38.50423,37.51015],[38.23728,37.42252],[37.9489,37.37656],[37.88721,37.25615],[37.86214,37.17623],[37.85224,37.14466],[37.87842,37.10076],[37.96441,37.01254],[38.03806,36.71827],[38.17722,36.62576],[38.19448,36.57537],[38.24293,36.50085],[38.16672,36.3158],[38.1754,36.28367],[38.156,36.24557],[38.10804,36.20066],[38.14134,36.08477],[38.20973,36.00197],[38.65535,35.86561],[38.78222,35.89701],[38.98737,35.90114],[39.25923,35.82126],[39.27583,35.79764],[39.26816,35.79824],[39.16061,35.50689],[38.94656,35.2066],[38.72845,34.8056],[37.70743,33.66317],[37.46218,33.42141],[37.27595,33.15425],[37.17157,32.88573],[37.20491,32.84898],[37.14523,32.68241],[37.07866,32.54032],[36.88644,32.2954],[36.76402,32.10374],[36.40215,31.30551],[36.23202,31.03687],[36.1296,30.84698],[35.88967,30.32236],[35.8331,30.16392],[35.82586,29.84092],[35.8459,29.60165],[35.89339,29.16611],[35.97891,28.72771],[35.97903,28.39857],[36.02976,28.14183],[36.16513,27.87444],[36.1459,27.84225],[35.89547,27.77929]],[[4.72961,52.3907],[5.51366,52.26116],[6.00757,51.90041],[6.30245,51.82021],[6.53997,51.67396],[6.71016,51.46644],[6.75059,51.20885],[7.01109,50.83969],[7.34686,50.48037],[7.54535,50.41981],[7.73046,50.00837],[8.25305,50.03384],[8.35561,49.95508],[8.49876,49.37892],[8.26719,48.99019],[7.79616,48.62855],[7.51108,48.06076],[7.52589,47.77241],[7.6043,47.6299],[7.72575,47.56845],[8.05577,47.60706],[8.29683,47.56303],[8.24446,47.38291],[10.09173,47.02322],[10.60506,47.00132],[10.61614,47.00085],[12.01672,46.9411],[11.96846,47.43267],[11.41244,47.27141],[11.02492,47.30697],[10.74975,47.2471],[9.7212,47.49812],[9.14414,47.70152],[8.50729,47.56629],[8.30239,47.58209],[8.65612,47.74137],[9.04623,47.8337],[9.30513,48.03401],[10.59355,48.60777],[11.63012,48.7736],[12.00166,48.87772],[12.07237,48.96466],[12.2398,48.96136],[13.41049,48.57268],[13.52912,48.57765],[13.93664,48.41401],[14.0049,48.33978],[14.26993,48.31473],[14.65233,48.16564],[14.86242,48.23451],[15.06998,48.18108],[15.27395,48.23602],[15.47066,48.40701],[15.88795,48.35125],[16.24333,48.36461],[16.53772,48.12726],[17.07809,48.12944],[17.27852,47.98105],[17.26952,47.92156],[17.63724,47.74112],[18.60419,47.74636],[18.75946,47.80401],[18.90245,47.75707],[18.99877,47.80318],[19.03411,47.63985],[18.97281,47.44702],[18.87448,47.39509],[18.83438,47.17471],[18.94408,46.70182],[18.80642,46.60086],[18.87259,46.48347],[18.81201,46.21368],[18.65335,46.00211],[18.89548,45.75561],[18.88691,45.57499],[19.00781,45.50894],[18.97417,45.36645],[19.21915,45.23381],[19.86952,45.25091],[20.00603,45.17189],[20.23108,45.15084],[20.33076,45.03212],[20.28319,44.98521],[20.34541,44.89207],[20.42483,44.83529],[20.59359,44.83888],[20.60639,44.75384],[20.74547,44.66076],[21.31698,44.81328],[21.5615,44.75926],[21.60429,44.66885],[21.93352,44.63411],[22.08427,44.48265],[22.16279,44.48039],[22.35129,44.67731],[22.45972,44.70455],[22.73132,44.53797],[22.68261,44.51382],[22.61456,44.56256],[22.51688,44.47959],[22.41438,44.48421],[22.4868,44.35752],[22.62741,44.29359],[22.66744,44.20167],[23.00762,44.0631],[22.82115,43.89757],[23.02365,43.79653],[23.28476,43.84461],[24.14414,43.70028],[24.52233,43.75862],[24.72088,43.694],[24.97461,43.71626],[25.16518,43.64448],[25.52793,43.6267],[25.7468,43.70337],[26.13113,43.9749],[26.33515,44.02987],[26.65485,44.05326],[26.91232,44.13287],[27.44005,44.11628],[27.59604,44.20769],[27.92106,44.24099],[28.10742,44.44069],[28.04022,44.69803],[27.90748,44.73975],[28.0456,45.32937],[28.16623,45.3866],[28.76776,45.24852],[28.83304,45.34041],[28.94547,45.30957],[28.96531,45.3592],[29.27428,45.45083],[29.58262,45.404],[29.67782,45.27921]],[[9.12254,47.47424],[9.19623,47.22337],[9.06353,47.35651],[9.1677,47.66628],[9.24818,47.6344],[9.12254,47.47424]],[[5.01296,52.36965],[4.78231,52.4304],[4.66734,52.53893],[4.94445,52.45995],[5.01296,52.36965]],[[35.41301,23.61377],[35.33258,23.60732],[35.16126,23.54994],[34.92638,23.52128],[34.75752,23.42458],[34.43564,23.31041],[34.33082,23.2214],[33.88983,23.12055],[33.37106,23.02958],[33.21865,22.92744],[33.14237,22.90393],[32.77101,23.02257],[32.1766,23.30633],[31.92153,23.57272],[31.71192,23.9106],[31.50672,24.26827],[31.11369,25.12846],[30.97968,25.50939],[30.78489,25.92862],[30.54338,26.36028],[30.40618,26.67772],[30.01221,28.01807],[29.68635,28.25083],[29.40047,28.35913],[28.55892,28.46604],[27.97496,28.58119],[27.61456,28.66156],[26.92893,29.03493],[26.77094,29.16202],[26.62307,29.24909],[26.53451,29.3989],[26.46456,29.62015],[26.37035,29.75224],[26.24105,29.83478],[25.94689,29.94965],[25.40207,30.01711],[24.81567,30.18229],[23.43368,30.47727],[22.74769,30.61172],[22.3301,30.68772],[21.7335,30.7374],[21.47365,30.73657],[21.23159,30.71383],[21.04318,30.62726],[20.92166,30.55019],[20.80555,30.37916],[20.29722,29.90542],[20.1483,29.77566],[20.02077,29.64319],[19.80712,29.63208],[19.64075,29.65186],[19.58683,29.68384],[19.48408,29.66961],[18.27154,29.94594],[16.96741,30.26391],[15.29255,30.57967],[13.18591,31.11164],[12.02298,31.58687],[10.98433,31.83905],[9.90426,32.54719],[9.06797,32.90125],[7.10868,33.42518],[6.26358,33.7119],[5.59534,34.18402],[3.97828,34.48893],[2.15515,34.42703],[1.28566,34.28033],[-1.1535,33.97704],[-2.38354,34.01975],[-3.88679,33.89457],[-5.65426,33.80065],[-6.01808,33.81828],[-6.37469,33.90018]],[[15.63492,31.45456],[15.8503,31.3185],[16.14658,31.22113],[16.72754,31.18782],[17.3751,31.05757]],[[17.94149,30.81272],[18.16717,30.76458]],[[18.2294,30.68871],[18.30104,30.64498],[18.44975,30.53238],[18.54183,30.48861],[18.56782,30.44457],[18.65606,30.39588],[18.69082,30.35877],[18.78855,30.32809],[18.83146,30.30148],[18.88177,30.29215],[18.92398,30.26362],[18.97295,30.24867],[19.17567,30.24121],[19.32668,30.27316],[19.38083,30.29572]],[[20.03461,32.06406],[20.04889,32.10478],[20.07465,32.10928],[20.07484,32.11828],[20.06155,32.12409]],[[-6.29141,36.76675],[-6.21714,36.86065],[-6.14772,36.84485],[-6.22657,36.75052],[-6.14984,36.78523],[-6.05582,36.84165],[-6.11626,36.87153],[-6.09288,36.92353],[-5.89408,37.02953],[-5.94913,37.14168],[-5.87566,37.13965],[-6.07321,37.26653],[-6.42524,37.11905],[-6.56374,37.14711],[-6.46222,37.04697],[-6.52704,37.00287]]]}}]}
