{"type":"FeatureCollection","features":[{"type":"Feature","properties":{"id":"neutral-mask-1"},"geometry":{"type":"Polygon","coordinates":[[[34.195313000000006,29.427343999999998],[35.937977,29.427343999999998],[35.937977,33.465674],[34.195313000000006,33.465674],[34.195313000000006,29.427343999999998]]]}},{"type":"Feature","properties":{"id":"neutral-mask-2"},"geometry":{"type":"Polygon","coordinates":[[[34.148145,31.158300999999998],[34.575585999999994,31.158300999999998],[34.575585999999994,31.634863],[34.148145,31.634863],[34.148145,31.158300999999998]]]}},{"type":"Feature","properties":{"id":"neutral-mask-3"},"geometry":{"type":"Polygon","coordinates":[[[34.822754,31.301318],[35.622069999999994,31.301318],[35.622069999999994,32.584424],[34.822754,32.584424],[34.822754,31.301318]]]}},{"type":"Feature","properties":{"id":"neutral-mask-4"},"geometry":{"type":"Polygon","coordinates":[[[35.537736,32.629143000000006],[35.938072999999996,32.629143000000006],[35.938072999999996,33.456722],[35.537736,33.456722],[35.537736,32.629143000000006]]]}},{"type":"Feature","properties":{"id":"neutral-mask-5"},"geometry":{"type":"Polygon","coordinates":[[[32.660592,34.952722],[34.64254,34.952722],[34.64254,35.741961999999994],[32.660592,35.741961999999994],[32.660592,34.952722]]]}},{"type":"Feature","properties":{"id":"neutral-mask-6"},"geometry":{"type":"Polygon","coordinates":[[[32.551899000000006,35.113436],[32.690694,35.113436],[32.690694,35.237077],[32.551899000000006,35.237077],[32.551899000000006,35.113436]]]}},{"type":"Feature","properties":{"id":"neutral-mask-7"},"geometry":{"type":"Polygon","coordinates":[[[33.848116000000005,34.997216],[34.071960999999995,34.997216],[34.071960999999995,35.119105],[33.848116000000005,35.119105],[33.848116000000005,34.997216]]]}},{"type":"Feature","properties":{"id":"neutral-mask-8"},"geometry":{"type":"Polygon","coordinates":[[[32.641549000000005,34.927763000000006],[33.76544,34.927763000000006],[33.76544,35.249402999999994],[32.641549000000005,35.249402999999994],[32.641549000000005,34.927763000000006]]]}},{"type":"Feature","properties":{"id":"neutral-mask-9"},"geometry":{"type":"Polygon","coordinates":[[[32.534809,35.101809],[32.709813,35.101809],[32.709813,35.238056],[32.534809,35.238056],[32.534809,35.101809]]]}},{"type":"Feature","properties":{"id":"neutral-mask-10"},"geometry":{"type":"Polygon","coordinates":[[[32.431619000000005,44.331049],[36.688356999999996,44.331049],[36.688356999999996,46.268105999999996],[32.431619000000005,46.268105999999996],[32.431619000000005,44.331049]]]}},{"type":"Feature","properties":{"id":"neutral-mask-11"},"geometry":{"type":"Polygon","coordinates":[[[19.974750999999998,41.79401],[21.822758,41.79401],[21.822758,43.313070999999994],[19.974750999999998,43.313070999999994],[19.974750999999998,41.79401]]]}},{"type":"Feature","properties":{"id":"neutral-mask-12"},"geometry":{"type":"Polygon","coordinates":[[[-17.063743000000002,21.369971],[-8.702872,21.369971],[-8.702872,27.712514000000002],[-17.063743000000002,27.712514000000002],[-17.063743000000002,21.369971]]]}},{"type":"Feature","properties":{"id":"neutral-mask-13"},"geometry":{"type":"Polygon","coordinates":[[[-17.154644,20.716912999999998],[-8.630809,20.716912999999998],[-8.630809,27.711465],[-17.154644,27.711465],[-17.154644,20.716912999999998]]]}},{"type":"Feature","properties":{"id":"neutral-mask-14"},"geometry":{"type":"Polygon","coordinates":[[[39.935976000000004,42.356457000000006],[42.204333999999996,42.356457000000006],[42.204333999999996,43.625842999999996],[39.935976000000004,43.625842999999996],[39.935976000000004,42.356457000000006]]]}},{"type":"Feature","properties":{"id":"neutral-mask-15"},"geometry":{"type":"Polygon","coordinates":[[[43.509387000000004,41.939867],[44.698726,41.939867],[44.698726,42.803213],[43.509387000000004,42.803213],[43.509387000000004,41.939867]]]}},{"type":"Feature","properties":{"id":"neutral-mask-16"},"geometry":{"type":"Polygon","coordinates":[[[28.451082,46.503129],[30.002621,46.503129],[30.002621,48.205951],[28.451082,48.205951],[28.451082,46.503129]]]}},{"type":"Feature","properties":{"id":"neutral-mask-17"},"geometry":{"type":"Polygon","coordinates":[[[46.241365,39.488156000000004],[47.253353,39.488156000000004],[47.253353,40.462728],[46.241365,40.462728],[46.241365,39.488156000000004]]]}}]}
